[Satellite]
VERSION=1.1
NAME=RADUGA 23 [-]
NICKNAME=RADUGA 23 [-]
TLE1=1 19928U 89030A   17185.62565153  .00000115  00000-0  00000-0 0  9991
TLE2=2 19928  14.8382 359.7761 0018300 121.9179  60.9880  1.00313823102057
